start=new Date('2022-08-16T00:00:00.000Z').valueOf();
sats=[{"APOAPSIS":"541.038","TLE_LINE2":"2 51748  53.2188  33.0169 0001747  51.5340  82.1140 15.08812537  1303","MEAN_MOTION_DOT":"0.00049870","COUNTRY_CODE":"US","MEAN_MOTION":"15.08812537","EPOCH":"2022-08-15T22:00:00.999936","PERIAPSIS":"538.621","OBJECT_NAME":"STARLINK-3501","ECCENTRICITY":"0.00017470","REF_FRAME":"TEME","FILE":"3537378","NORAD_CAT_ID":"51748","RCS_SIZE":"LARGE","INCLINATION":"53.2188","OBJECT_TYPE":"PAYLOAD","SEMIMAJOR_AXIS":"6917.964","BSTAR":"0.00313180000000","CLASSIFICATION_TYPE":"U","MEAN_ELEMENT_THEORY":"SGP4","GP_ID":"210299496","OBJECT_ID":"2022-016AL","RA_OF_ASC_NODE":"33.0169","PERIOD":"95.439","ARG_OF_PERICENTER":"51.5340","ELEMENT_SET_NO":"999","TIME_SYSTEM":"UTC","TLE_LINE1":"1 51748U 22016AL  22227.91667824  .00049870  00000-0  31318-2 0  9990","EPHEMERIS_TYPE":"0","REV_AT_EPOCH":"130","MEAN_ANOMALY":"82.1140","DECAY_DATE":null,"MEAN_MOTION_DDOT":"0.0000000000000","LAUNCH_DATE":"2022-02-21","CENTER_NAME":"EARTH","SITE":"AFETR"},{"RA_OF_ASC_NODE":"43.0040","PERIOD":"95.439","ARG_OF_PERICENTER":"60.6273","ELEMENT_SET_NO":"999","TIME_SYSTEM":"UTC","OBJECT_TYPE":"PAYLOAD","SEMIMAJOR_AXIS":"6917.939","BSTAR":"0.00256700000000","CLASSIFICATION_TYPE":"U","GP_ID":"210299746","MEAN_ELEMENT_THEORY":"SGP4","OBJECT_ID":"2022-016AM","MEAN_ANOMALY":"12.8315","DECAY_DATE":null,"MEAN_MOTION_DDOT":"0.0000000000000","LAUNCH_DATE":"2022-02-21","CENTER_NAME":"EARTH","SITE":"AFETR","TLE_LINE1":"1 51749U 22016AM  22227.91667824  .00040781  00000-0  25670-2 0  9997","EPHEMERIS_TYPE":"0","REV_AT_EPOCH":"130","EPOCH":"2022-08-15T22:00:00.999936","MEAN_MOTION":"15.08820901","PERIAPSIS":"538.735","OBJECT_NAME":"STARLINK-3451","ECCENTRICITY":"0.00015450","APOAPSIS":"540.873","TLE_LINE2":"2 51749  53.2190  43.0040 0001545  60.6273  12.8315 15.08820901  1306","MEAN_MOTION_DOT":"0.00040781","COUNTRY_CODE":"US","NORAD_CAT_ID":"51749","RCS_SIZE":"LARGE","INCLINATION":"53.2190","REF_FRAME":"TEME","FILE":"3537378"},{"PERIAPSIS":"538.816","OBJECT_NAME":"STARLINK-3505","ECCENTRICITY":"0.00015020","MEAN_MOTION":"15.08804171","EPOCH":"2022-08-15T22:00:00.999936","MEAN_MOTION_DOT":"0.00052809","COUNTRY_CODE":"US","APOAPSIS":"540.894","TLE_LINE2":"2 51750  53.2189  33.0165 0001502  50.6240 123.0394 15.08804171  1302","NORAD_CAT_ID":"51750","RCS_SIZE":"LARGE","INCLINATION":"53.2189","FILE":"3537378","REF_FRAME":"TEME","ELEMENT_SET_NO":"999","TIME_SYSTEM":"UTC","RA_OF_ASC_NODE":"33.0165","PERIOD":"95.440","ARG_OF_PERICENTER":"50.6240","CLASSIFICATION_TYPE":"U","GP_ID":"210300997","MEAN_ELEMENT_THEORY":"SGP4","OBJECT_ID":"2022-016AN","BSTAR":"0.00331470000000","OBJECT_TYPE":"PAYLOAD","SEMIMAJOR_AXIS":"6917.990","DECAY_DATE":null,"MEAN_MOTION_DDOT":"0.0000000000000","CENTER_NAME":"EARTH","LAUNCH_DATE":"2022-02-21","SITE":"AFETR","MEAN_ANOMALY":"123.0394","EPHEMERIS_TYPE":"0","REV_AT_EPOCH":"130","TLE_LINE1":"1 51750U 22016AN  22227.91667824  .00052809  00000-0  33147-2 0  9991"},{"MEAN_MOTION":"15.08806853","EPOCH":"2022-08-15T22:00:00.999936","PERIAPSIS":"538.763","OBJECT_NAME":"STARLINK-3506","ECCENTRICITY":"0.00015670","APOAPSIS":"540.931","TLE_LINE2":"2 51751  53.2178  33.0125 0001567  51.8147  61.8121 15.08806853  1303","MEAN_MOTION_DOT":"0.00048269","COUNTRY_CODE":"US","NORAD_CAT_ID":"51751","RCS_SIZE":"LARGE","INCLINATION":"53.2178","REF_FRAME":"TEME","FILE":"3537378","RA_OF_ASC_NODE":"33.0125","PERIOD":"95.440","ARG_OF_PERICENTER":"51.8147","ELEMENT_SET_NO":"999","TIME_SYSTEM":"UTC","SEMIMAJOR_AXIS":"6917.982","OBJECT_TYPE":"PAYLOAD","BSTAR":"0.00303300000000","CLASSIFICATION_TYPE":"U","GP_ID":"210300740","MEAN_ELEMENT_THEORY":"SGP4","OBJECT_ID":"2022-016AP","MEAN_ANOMALY":"61.8121","DECAY_DATE":null,"MEAN_MOTION_DDOT":"0.0000000000000","LAUNCH_DATE":"2022-02-21","CENTER_NAME":"EARTH","SITE":"AFETR","TLE_LINE1":"1 51751U 22016AP  22227.91667824  .00048269  00000-0  30330-2 0  9998","EPHEMERIS_TYPE":"0","REV_AT_EPOCH":"130"},{"REV_AT_EPOCH":"130","EPHEMERIS_TYPE":"0","TLE_LINE1":"1 51752U 22016AQ  22227.91667824  .00007376  00000-0  48107-3 0  9995","SITE":"AFETR","CENTER_NAME":"EARTH","LAUNCH_DATE":"2022-02-21","MEAN_MOTION_DDOT":"0.0000000000000","DECAY_DATE":null,"MEAN_ANOMALY":"132.1810","OBJECT_ID":"2022-016AQ","MEAN_ELEMENT_THEORY":"SGP4","GP_ID":"210299996","CLASSIFICATION_TYPE":"U","SEMIMAJOR_AXIS":"6917.895","OBJECT_TYPE":"PAYLOAD","BSTAR":"0.00048107000000","TIME_SYSTEM":"UTC","ELEMENT_SET_NO":"999","ARG_OF_PERICENTER":"61.4295","PERIOD":"95.438","RA_OF_ASC_NODE":"33.0162","FILE":"3537378","REF_FRAME":"TEME","INCLINATION":"53.2188","RCS_SIZE":"MEDIUM","NORAD_CAT_ID":"51752","COUNTRY_CODE":"US","MEAN_MOTION_DOT":"0.00007376","TLE_LINE2":"2 51752  53.2188  33.0162 0001583  61.4295 132.1810 15.08835124  1305","APOAPSIS":"540.855","ECCENTRICITY":"0.00015830","OBJECT_NAME":"STARLINK-3511","PERIAPSIS":"538.665","EPOCH":"2022-08-15T22:00:00.999936","MEAN_MOTION":"15.08835124"},{"TLE_LINE2":"2 51753  53.2180  33.0120 0001591  55.7558  97.8939 15.08817459  1309","APOAPSIS":"540.915","COUNTRY_CODE":"US","MEAN_MOTION_DOT":"0.00050711","MEAN_MOTION":"15.08817459","EPOCH":"2022-08-15T22:00:00.999936","ECCENTRICITY":"0.00015910","OBJECT_NAME":"STARLINK-3507","PERIAPSIS":"538.714","REF_FRAME":"TEME","FILE":"3537378","INCLINATION":"53.2180","RCS_SIZE":"LARGE","NORAD_CAT_ID":"51753","SEMIMAJOR_AXIS":"6917.949","OBJECT_TYPE":"PAYLOAD","BSTAR":"0.00318350000000","OBJECT_ID":"2022-016AR","GP_ID":"210300246","MEAN_ELEMENT_THEORY":"SGP4","CLASSIFICATION_TYPE":"U","ARG_OF_PERICENTER":"55.7558","PERIOD":"95.439","RA_OF_ASC_NODE":"33.0120","TIME_SYSTEM":"UTC","ELEMENT_SET_NO":"999","TLE_LINE1":"1 51753U 22016AR  22227.91667824  .00050711  00000-0  31835-2 0  9996","REV_AT_EPOCH":"130","EPHEMERIS_TYPE":"0","MEAN_ANOMALY":"97.8939","SITE":"AFETR","CENTER_NAME":"EARTH","LAUNCH_DATE":"2022-02-21","MEAN_MOTION_DDOT":"0.0000000000000","DECAY_DATE":null},{"REF_FRAME":"TEME","FILE":"3537367","INCLINATION":"53.2170","RCS_SIZE":"LARGE","NORAD_CAT_ID":"51754","TLE_LINE2":"2 51754  53.2170  32.6320 0001569  50.8068 270.5166 15.08814172 28303","APOAPSIS":"540.910","COUNTRY_CODE":"US","MEAN_MOTION_DOT":"0.00015696","EPOCH":"2022-08-16T00:00:00.999648","MEAN_MOTION":"15.08814172","ECCENTRICITY":"0.00015690","OBJECT_NAME":"STARLINK-3457","PERIAPSIS":"538.739","TLE_LINE1":"1 51754U 22016AS  22228.00001157  .00015696  00000-0  10028-2 0  9993","REV_AT_EPOCH":"2830","EPHEMERIS_TYPE":"0","MEAN_ANOMALY":"270.5166","SITE":"AFETR","CENTER_NAME":"EARTH","LAUNCH_DATE":"2022-02-21","MEAN_MOTION_DDOT":"0.0000000000000","DECAY_DATE":null,"SEMIMAJOR_AXIS":"6917.959","OBJECT_TYPE":"PAYLOAD","BSTAR":"0.00100280000000","OBJECT_ID":"2022-016AS","GP_ID":"210276790","MEAN_ELEMENT_THEORY":"SGP4","CLASSIFICATION_TYPE":"U","ARG_OF_PERICENTER":"50.8068","PERIOD":"95.439","RA_OF_ASC_NODE":"32.6320","TIME_SYSTEM":"UTC","ELEMENT_SET_NO":"999"},{"REF_FRAME":"TEME","FILE":"3537378","NORAD_CAT_ID":"51755","RCS_SIZE":"LARGE","INCLINATION":"53.2179","APOAPSIS":"540.932","TLE_LINE2":"2 51755  53.2179  33.0109 0001574  50.0226 163.6380 15.08808158  1305","MEAN_MOTION_DOT":"0.00051627","COUNTRY_CODE":"US","EPOCH":"2022-08-15T22:00:00.999936","MEAN_MOTION":"15.08808158","PERIAPSIS":"538.754","OBJECT_NAME":"STARLINK-3460","ECCENTRICITY":"0.00015740","TLE_LINE1":"1 51755U 22016AT  22227.91667824  .00051627  00000-0  32411-2 0  9996","EPHEMERIS_TYPE":"0","REV_AT_EPOCH":"130","MEAN_ANOMALY":"163.6380","DECAY_DATE":null,"MEAN_MOTION_DDOT":"0.0000000000000","LAUNCH_DATE":"2022-02-21","CENTER_NAME":"EARTH","SITE":"AFETR","OBJECT_TYPE":"PAYLOAD","BSTAR":"0.00324110000000","SEMIMAJOR_AXIS":"6917.978","CLASSIFICATION_TYPE":"U","GP_ID":"210301240","MEAN_ELEMENT_THEORY":"SGP4","OBJECT_ID":"2022-016AT","RA_OF_ASC_NODE":"33.0109","PERIOD":"95.440","ARG_OF_PERICENTER":"50.0226","ELEMENT_SET_NO":"999","TIME_SYSTEM":"UTC"},{"PERIAPSIS":"538.665","ECCENTRICITY":"0.00016380","OBJECT_NAME":"STARLINK-3513","MEAN_MOTION":"15.08822662","EPOCH":"2022-08-15T22:00:00.999936","COUNTRY_CODE":"US","MEAN_MOTION_DOT":"0.00034781","TLE_LINE2":"2 51756  53.2191  33.0010 0001638  54.6789 319.0017 15.08822662  1306","APOAPSIS":"540.932","RCS_SIZE":"MEDIUM","NORAD_CAT_ID":"51756","INCLINATION":"53.2191","FILE":"3537378","REF_FRAME":"TEME","ELEMENT_SET_NO":"999","TIME_SYSTEM":"UTC","RA_OF_ASC_NODE":"33.0010","ARG_OF_PERICENTER":"54.6789","PERIOD":"95.439","CLASSIFICATION_TYPE":"U","OBJECT_ID":"2022-016AU","GP_ID":"210299497","MEAN_ELEMENT_THEORY":"SGP4","OBJECT_TYPE":"PAYLOAD","SEMIMAJOR_AXIS":"6917.933","BSTAR":"0.00219370000000","MEAN_MOTION_DDOT":"0.0000000000000","DECAY_DATE":null,"SITE":"AFETR","CENTER_NAME":"EARTH","LAUNCH_DATE":"2022-02-21","MEAN_ANOMALY":"319.0017","EPHEMERIS_TYPE":"0","REV_AT_EPOCH":"130","TLE_LINE1":"1 51756U 22016AU  22227.91667824  .00034781  00000-0  21937-2 0  9990"},{"MEAN_MOTION":"15.08829004","EPOCH":"2022-08-15T22:00:00.999936","PERIAPSIS":"538.692","OBJECT_NAME":"STARLINK-3459","ECCENTRICITY":"0.00015720","APOAPSIS":"540.866","TLE_LINE2":"2 51757  53.2189  32.9992 0001572  52.5740 341.1194 15.08829004  1301","MEAN_MOTION_DOT":"0.00001215","COUNTRY_CODE":"US","NORAD_CAT_ID":"51757","RCS_SIZE":"LARGE","INCLINATION":"53.2189","REF_FRAME":"TEME","FILE":"3537378","RA_OF_ASC_NODE":"32.9992","PERIOD":"95.438","ARG_OF_PERICENTER":"52.5740","ELEMENT_SET_NO":"999","TIME_SYSTEM":"UTC","SEMIMAJOR_AXIS":"6917.914","OBJECT_TYPE":"PAYLOAD","BSTAR":"0.00009443700000","CLASSIFICATION_TYPE":"U","GP_ID":"210299747","MEAN_ELEMENT_THEORY":"SGP4","OBJECT_ID":"2022-016AV","MEAN_ANOMALY":"341.1194","DECAY_DATE":null,"MEAN_MOTION_DDOT":"0.0000000000000","CENTER_NAME":"EARTH","LAUNCH_DATE":"2022-02-21","SITE":"AFETR","TLE_LINE1":"1 51757U 22016AV  22227.91667824  .00001215  00000-0  94437-4 0  9994","EPHEMERIS_TYPE":"0","REV_AT_EPOCH":"130"}];
